STARLINK-11072 [DTC]    
1 58705U 24002A   26194.79475101 -.00001658  00000+0 -88471-5 0  9993
2 58705  53.1581  12.3627 0000554  75.8379 284.2700 15.69692303146248
STARLINK-11075 [DTC]    
1 58706U 24002B   26194.75937050  .00011098  00000+0  94493-4 0  9993
2 58706  53.1591  12.1396 0000540  62.2300 297.8773 15.70182952146246
STARLINK-11077 [DTC]    
1 58707U 24002C   26194.86822779 -.00000418  00000+0  14000-5 0  9999
2 58707  53.1587  12.1005 0000548  86.2834 273.8246 15.69698598146251
STARLINK-11079 [DTC]    
1 58708U 24002D   26194.78984416 -.00000328  00000+0  21418-5 0  9999
2 58708  53.1586  12.3271 0000658  65.7439 294.3647 15.69696309146243
STARLINK-11076 [DTC]    
1 58709U 24002E   26194.78494272 -.00001403  00000+0 -67350-5 0  9997
2 58709  53.1593  12.2984 0000817  89.5720 270.5392 15.69695190146246
STARLINK-11078 [DTC]    
1 58710U 24002F   26194.78004101 -.00001734  00000+0 -94653-5 0  9990
2 58710  53.1594  12.2682 0000964  88.9741 271.1388 15.69689139146241
STARLINK-31031          
1 58711U 24002G   26194.78106451  .00001088  00000+0  43335-4 0  9992
2 58711  53.1619   2.6223 0001308  83.1451 276.9701 15.34392542141341
STARLINK-31029          
1 58712U 24002H   26194.78553409 -.00001143  00000+0 -26489-4 0  9997
2 58712  53.1614   4.0585 0001033  79.4042 280.7075 15.30186663141329
STARLINK-30973          
1 58713U 24002J   26194.79186396  .00001043  00000+0  47337-4 0  9998
2 58713  53.1599   4.0977 0001194  83.9216 276.1921 15.30193237141322
STARLINK-31100          
1 58714U 24002K   26194.79502774 -.00000106  00000+0  85447-5 0  9996
2 58714  53.1619   4.1171 0000797  79.4956 280.6135 15.30191141141321
STARLINK-31102          
1 58715U 24002L   26194.88196315  .00000602  00000+0  28937-4 0  9997
2 58715  53.1619   2.5283 0001023  96.0787 264.0333 15.34398731141355
STARLINK-31098          
1 58716U 24002M   26194.86245095  .00001175  00000+0  51778-4 0  9991
2 58716  53.1613   3.8246 0000664  92.8028 267.3049 15.30194543141334
STARLINK-31093          
1 58717U 24002N   26194.86984001  .00000241  00000+0  20274-4 0  9999
2 58717  53.1613   3.8836 0001076  82.7319 277.3804 15.30195796141330
STARLINK-31097          
1 58718U 24002P   26194.86669426  .00014401  00000+0  49867-3 0  9992
2 58718  53.1618   3.8469 0001674  90.3893 269.7299 15.30116974141338
STARLINK-31051          
1 58719U 24002Q   26194.74131851  .00000983  00000+0  45299-4 0  9992
2 58719  53.1629   4.4890 0001082  93.2038 266.9087 15.30196551141313
STARLINK-31027          
1 58720U 24002R   26194.62135068  .00079825  00000+0  48769-3 0  9990
2 58720  53.1400 330.5183 0006978  21.1254 339.0053 15.76673872141770
STARLINK-30972          
1 58721U 24002S   26194.79291831  .00000836  00000+0  40358-4 0  9993
2 58721  53.1613   4.0998 0001007  95.9736 264.1379 15.30193856141325
STARLINK-31040          
1 58722U 24002T   26194.86723933 -.00000284  00000+0  27229-5 0  9996
2 58722  53.1613   2.4330 0001264  86.6926 273.4221 15.34392796141351
STARLINK-31033          
1 58723U 24002U   26194.73498534  .00002502  00000+0  96551-4 0  9996
2 58723  53.1604   4.4439 0000963  94.7135 265.3976 15.30202657141316
STARLINK-30893          
1 58724U 24002V   26194.92185436  .00004693  00000+0  14993-3 0  9994
2 58724  53.1604   2.0729 0001167  85.5408 274.5727 15.34402235141359
STARLINK-30856          
1 58725U 24002W   26194.79608405  .00000459  00000+0  27610-4 0  9993
2 58725  53.1613   4.1194 0000758  73.5441 286.5643 15.30194622141329
UNICORN-2L              
1 58727U 23185R   26195.16526485  .00005315  00000+0  23783-3 0  9997
2 58727  97.5389 269.0655 0012256 211.2574 148.7934 15.21660924138894
STARLINK-31115          
1 58729U 24005B   26195.11270679 -.00000241  00000+0  77311-6 0  9990
2 58729  43.0007 226.1832 0001394 288.1257  71.9443 15.27576490139761
STARLINK-31180          
1 58732U 24005E   26195.14468507  .00000085  00000+0  12596-4 0  9993
2 58732  43.0038 225.5853 0001227 275.3436  84.7276 15.27579091139774
STARLINK-31164          
1 58733U 24005F   26195.12027029  .00000876  00000+0  41354-4 0  9994
2 58733  42.9858 225.3724 0003153 174.9745 185.1139 15.27578221139773
STARLINK-31152          
1 58734U 24005G   26195.05873922 -.00000441  00000+0 -65057-5 0  9995
2 58734  43.0002 225.7898 0001067 248.8614 111.2123 15.27575034139773
STARLINK-31157          
1 58735U 24005H   26195.12797976 -.00000320  00000+0 -21025-5 0  9991
2 58735  42.9989 225.4468 0000805 222.9563 137.1225 15.27578279139786
STARLINK-31076          
1 58736U 24005J   26195.06645087 -.00000104  00000+0  57359-5 0  9998
2 58736  43.0039 225.8478 0001572 281.7623  78.3052 15.27579067139816
STARLINK-31101          
1 58737U 24005K   26195.07673166  .00000525  00000+0  28613-4 0  9995
2 58737  43.0002 225.9191 0001804 185.1824 174.9010 15.27567891139761
STARLINK-31108          
1 58738U 24005L   26195.13569088  .00000021  00000+0  10300-4 0  9995
2 58738  43.0016 225.5055 0001368 269.8977  90.1718 15.27575600139778
