OBJECT_NAME,OBJECT_ID,EPOCH,MEAN_MOTION,ECCENTRICITY,INCLINATION,RA_OF_ASC_NODE,ARG_OF_PERICENTER,MEAN_ANOMALY,EPHEMERIS_TYPE,CLASSIFICATION_TYPE,NORAD_CAT_ID,ELEMENT_SET_NO,REV_AT_EPOCH,BSTAR,MEAN_MOTION_DOT,MEAN_MOTION_DDOT
STARLINK-11072 [DTC],2024-002A,2026-07-13T19:04:26.487264,15.69692303,.0000554,53.1581,12.3627,75.8379,284.2700,0,U,58705,999,14624,-.88471E-5,-.1658E-4,0
STARLINK-11075 [DTC],2024-002B,2026-07-13T18:13:29.611200,15.70182952,.000054,53.1591,12.1396,62.2300,297.8773,0,U,58706,999,14624,.94493E-4,.11098E-3,0
STARLINK-11077 [DTC],2024-002C,2026-07-13T20:50:14.881056,15.69698598,.0000548,53.1587,12.1005,86.2834,273.8246,0,U,58707,999,14625,.14E-5,-.418E-5,0
STARLINK-11079 [DTC],2024-002D,2026-07-13T18:57:22.535424,15.69696309,.0000658,53.1586,12.3271,65.7439,294.3647,0,U,58708,999,14624,.21418E-5,-.328E-5,0
STARLINK-11076 [DTC],2024-002E,2026-07-13T18:50:19.051008,15.69695190,.0000817,53.1593,12.2984,89.5720,270.5392,0,U,58709,999,14624,-.6735E-5,-.1403E-4,0
STARLINK-11078 [DTC],2024-002F,2026-07-13T18:43:15.543264,15.69689139,.0000964,53.1594,12.2682,88.9741,271.1388,0,U,58710,999,14624,-.94653E-5,-.1734E-4,0
STARLINK-31031,2024-002G,2026-07-13T18:44:43.973664,15.34392542,.0001308,53.1619,2.6223,83.1451,276.9701,0,U,58711,999,14134,.43335E-4,.1088E-4,0
STARLINK-31029,2024-002H,2026-07-13T18:51:10.145376,15.30186663,.0001033,53.1614,4.0585,79.4042,280.7075,0,U,58712,999,14132,-.26489E-4,-.1143E-4,0
STARLINK-30973,2024-002J,2026-07-13T19:00:17.046144,15.30193237,.0001194,53.1599,4.0977,83.9216,276.1921,0,U,58713,999,14132,.47337E-4,.1043E-4,0
STARLINK-31100,2024-002K,2026-07-13T19:04:50.396736,15.30191141,.0000797,53.1619,4.1171,79.4956,280.6135,0,U,58714,999,14132,.85447E-5,-.106E-5,0
STARLINK-31102,2024-002L,2026-07-13T21:10:01.616160,15.34398731,.0001023,53.1619,2.5283,96.0787,264.0333,0,U,58715,999,14135,.28937E-4,.602E-5,0
STARLINK-31098,2024-002M,2026-07-13T20:41:55.762080,15.30194543,.0000664,53.1613,3.8246,92.8028,267.3049,0,U,58716,999,14133,.51778E-4,.1175E-4,0
STARLINK-31093,2024-002N,2026-07-13T20:52:34.176864,15.30195796,.0001076,53.1613,3.8836,82.7319,277.3804,0,U,58717,999,14133,.20274E-4,.241E-5,0
STARLINK-31097,2024-002P,2026-07-13T20:48:02.384064,15.30116974,.0001674,53.1618,3.8469,90.3893,269.7299,0,U,58718,999,14133,.49867E-3,.14401E-3,0
STARLINK-31051,2024-002Q,2026-07-13T17:47:29.919264,15.30196551,.0001082,53.1629,4.4890,93.2038,266.9087,0,U,58719,999,14131,.45299E-4,.983E-5,0
STARLINK-31027,2024-002R,2026-07-13T14:54:44.698752,15.76673872,.0006978,53.1400,330.5183,21.1254,339.0053,0,U,58720,999,14177,.48769E-3,.79825E-3,0
STARLINK-30972,2024-002S,2026-07-13T19:01:48.141984,15.30193856,.0001007,53.1613,4.0998,95.9736,264.1379,0,U,58721,999,14132,.40358E-4,.836E-5,0
STARLINK-31040,2024-002T,2026-07-13T20:48:49.478112,15.34392796,.0001264,53.1613,2.4330,86.6926,273.4221,0,U,58722,999,14135,.27229E-5,-.284E-5,0
STARLINK-31033,2024-002U,2026-07-13T17:38:22.733376,15.30202657,.0000963,53.1604,4.4439,94.7135,265.3976,0,U,58723,999,14131,.96551E-4,.2502E-4,0
STARLINK-30893,2024-002V,2026-07-13T22:07:28.216704,15.34402235,.0001167,53.1604,2.0729,85.5408,274.5727,0,U,58724,999,14135,.14993E-3,.4693E-4,0
STARLINK-30856,2024-002W,2026-07-13T19:06:21.661920,15.30194622,.0000758,53.1613,4.1194,73.5441,286.5643,0,U,58725,999,14132,.2761E-4,.459E-5,0
UNICORN-2L,2023-185R,2026-07-14T03:57:58.883040,15.21660924,.0012256,97.5389,269.0655,211.2574,148.7934,0,U,58727,999,13889,.23783E-3,.5315E-4,0
STARLINK-31115,2024-005B,2026-07-14T02:42:17.866656,15.27576490,.0001394,43.0007,226.1832,288.1257,71.9443,0,U,58729,999,13976,.77311E-6,-.241E-5,0
STARLINK-31180,2024-005E,2026-07-14T03:28:20.790048,15.27579091,.0001227,43.0038,225.5853,275.3436,84.7276,0,U,58732,999,13977,.12596E-4,.85E-6,0
STARLINK-31164,2024-005F,2026-07-14T02:53:11.353056,15.27578221,.0003153,42.9858,225.3724,174.9745,185.1139,0,U,58733,999,13977,.41354E-4,.876E-5,0
STARLINK-31152,2024-005G,2026-07-14T01:24:35.068608,15.27575034,.0001067,43.0002,225.7898,248.8614,111.2123,0,U,58734,999,13977,-.65057E-5,-.441E-5,0
STARLINK-31157,2024-005H,2026-07-14T03:04:17.451264,15.27578279,.0000805,42.9989,225.4468,222.9563,137.1225,0,U,58735,999,13978,-.21025E-5,-.32E-5,0
STARLINK-31076,2024-005J,2026-07-14T01:35:41.355168,15.27579067,.0001572,43.0039,225.8478,281.7623,78.3052,0,U,58736,999,13981,.57359E-5,-.104E-5,0
STARLINK-31101,2024-005K,2026-07-14T01:50:29.615424,15.27567891,.0001804,43.0002,225.9191,185.1824,174.9010,0,U,58737,999,13976,.28613E-4,.525E-5,0
STARLINK-31108,2024-005L,2026-07-14T03:15:23.692032,15.27575600,.0001368,43.0016,225.5055,269.8977,90.1718,0,U,58738,999,13977,.103E-4,.21E-6,0
